[{"OBJECT_NAME":"STARLINK-1131","OBJECT_ID":"2020-006D","EPOCH":"2026-03-09T20:41:11.035392","MEAN_MOTION":15.3018991,"ECCENTRICITY":0.00011694,"INCLINATION":53.1594,"RA_OF_ASC_NODE":280.1814,"ARG_OF_PERICENTER":85.5645,"MEAN_ANOMALY":274.5489,"EPHEMERIS_TYPE":0,"CLASSIFICATION_TYPE":"U","NORAD_CAT_ID":45047,"ELEMENT_SET_NO":999,"REV_AT_EPOCH":33657,"BSTAR":7.061045e-6,"MEAN_MOTION_DOT":-1.5e-6,"MEAN_MOTION_DDOT":0},{"OBJECT_NAME":"JILIN-1 GAOFEN 03D48","OBJECT_ID":"2022-167P","EPOCH":"2026-03-09T23:48:37.804608","MEAN_MOTION":15.32947339,"ECCENTRICITY":0.00075954,"INCLINATION":97.6781,"RA_OF_ASC_NODE":234.4968,"ARG_OF_PERICENTER":111.3084,"MEAN_ANOMALY":248.8969,"EPHEMERIS_TYPE":0,"CLASSIFICATION_TYPE":"U","NORAD_CAT_ID":54695,"ELEMENT_SET_NO":999,"REV_AT_EPOCH":18018,"BSTAR":0.00049677114,"MEAN_MOTION_DOT":0.00015755,"MEAN_MOTION_DDOT":0}]
